[{"OBJECT_NAME":"STARLINK-11388 [DTC]","OBJECT_ID":"2024-220E","EPOCH":"2025-08-05T12:22:22.872000","MEAN_MOTION":15.70849467,"ECCENTRICITY":0.0001133,"INCLINATION":42.9972,"RA_OF_ASC_NODE":266.1858,"ARG_OF_PERICENTER":247.6001,"MEAN_ANOMALY":112.4746,"EPHEMERIS_TYPE":0,"CLASSIFICATION_TYPE":"U","NORAD_CAT_ID":62092,"ELEMENT_SET_NO":999,"REV_AT_EPOCH":4095,"BSTAR":0.0010863,"MEAN_MOTION_DOT":0.00141389,"MEAN_MOTION_DDOT":0},{"OBJECT_NAME":"STARLINK-11345 [DTC]","OBJECT_ID":"2024-220F","EPOCH":"2025-08-05T12:14:44.106144","MEAN_MOTION":15.70877561,"ECCENTRICITY":0.0001774,"INCLINATION":43.0002,"RA_OF_ASC_NODE":266.1447,"ARG_OF_PERICENTER":287.2939,"MEAN_ANOMALY":72.7734,"EPHEMERIS_TYPE":0,"CLASSIFICATION_TYPE":"U","NORAD_CAT_ID":62093,"ELEMENT_SET_NO":999,"REV_AT_EPOCH":4095,"BSTAR":0.0013493,"MEAN_MOTION_DOT":0.00176694,"MEAN_MOTION_DDOT":0},{"OBJECT_NAME":"STARLINK-11381 [DTC]","OBJECT_ID":"2024-220G","EPOCH":"2025-08-05T12:07:05.396448","MEAN_MOTION":15.70865866,"ECCENTRICITY":0.0001631,"INCLINATION":43.0015,"RA_OF_ASC_NODE":266.0996,"ARG_OF_PERICENTER":286.6376,"MEAN_ANOMALY":73.4312,"EPHEMERIS_TYPE":0,"CLASSIFICATION_TYPE":"U","NORAD_CAT_ID":62094,"ELEMENT_SET_NO":999,"REV_AT_EPOCH":4095,"BSTAR":0.0012892,"MEAN_MOTION_DOT":0.00168553,"MEAN_MOTION_DDOT":0},{"OBJECT_NAME":"STARLINK-11369 [DTC]","OBJECT_ID":"2024-220H","EPOCH":"2025-08-05T11:59:26.450016","MEAN_MOTION":15.70878497,"ECCENTRICITY":0.0002431,"INCLINATION":43.0009,"RA_OF_ASC_NODE":266.0574,"ARG_OF_PERICENTER":279.2297,"MEAN_ANOMALY":80.8296,"EPHEMERIS_TYPE":0,"CLASSIFICATION_TYPE":"U","NORAD_CAT_ID":62095,"ELEMENT_SET_NO":999,"REV_AT_EPOCH":4105,"BSTAR":0.0012213,"MEAN_MOTION_DOT":0.00159571,"MEAN_MOTION_DDOT":0},{"OBJECT_NAME":"STARLINK-11303 [DTC]","OBJECT_ID":"2024-220J","EPOCH":"2025-08-05T11:51:47.646144","MEAN_MOTION":15.70875903,"ECCENTRICITY":0.0002423,"INCLINATION":43.0029,"RA_OF_ASC_NODE":266.0144,"ARG_OF_PERICENTER":273.2355,"MEAN_ANOMALY":86.8235,"EPHEMERIS_TYPE":0,"CLASSIFICATION_TYPE":"U","NORAD_CAT_ID":62096,"ELEMENT_SET_NO":999,"REV_AT_EPOCH":4105,"BSTAR":0.0013492,"MEAN_MOTION_DOT":0.00176675,"MEAN_MOTION_DDOT":0},{"OBJECT_NAME":"STARLINK-11367 [DTC]","OBJECT_ID":"2024-220K","EPOCH":"2025-08-05T11:44:08.911392","MEAN_MOTION":15.70888612,"ECCENTRICITY":0.0002636,"INCLINATION":43.0015,"RA_OF_ASC_NODE":265.9716,"ARG_OF_PERICENTER":275.6569,"MEAN_ANOMALY":84.3998,"EPHEMERIS_TYPE":0,"CLASSIFICATION_TYPE":"U","NORAD_CAT_ID":62097,"ELEMENT_SET_NO":999,"REV_AT_EPOCH":4105,"BSTAR":0.0014112,"MEAN_MOTION_DOT":0.00185105,"MEAN_MOTION_DDOT":0},{"OBJECT_NAME":"STARLINK-11386 [DTC]","OBJECT_ID":"2024-220L","EPOCH":"2025-08-05T10:04:56.696160","MEAN_MOTION":15.7087915,"ECCENTRICITY":5.61e-5,"INCLINATION":42.9992,"RA_OF_ASC_NODE":266.3119,"ARG_OF_PERICENTER":202.3152,"MEAN_ANOMALY":157.7692,"EPHEMERIS_TYPE":0,"CLASSIFICATION_TYPE":"U","NORAD_CAT_ID":62098,"ELEMENT_SET_NO":999,"REV_AT_EPOCH":4094,"BSTAR":0.0017504,"MEAN_MOTION_DOT":0.00230886,"MEAN_MOTION_DDOT":0},{"OBJECT_NAME":"STARLINK-11380 [DTC]","OBJECT_ID":"2024-220M","EPOCH":"2025-08-05T13:00:25.182432","MEAN_MOTION":15.70855029,"ECCENTRICITY":0.0001466,"INCLINATION":43.0003,"RA_OF_ASC_NODE":265.504,"ARG_OF_PERICENTER":284.3972,"MEAN_ANOMALY":75.6733,"EPHEMERIS_TYPE":0,"CLASSIFICATION_TYPE":"U","NORAD_CAT_ID":62099,"ELEMENT_SET_NO":999,"REV_AT_EPOCH":4096,"BSTAR":0.00091316,"MEAN_MOTION_DOT":0.00118481,"MEAN_MOTION_DDOT":0},{"OBJECT_NAME":"STARLINK-33566","OBJECT_ID":"2024-220N","EPOCH":"2025-08-05T14:31:50.809152","MEAN_MOTION":15.27572591,"ECCENTRICITY":0.0001402,"INCLINATION":43.0001,"RA_OF_ASC_NODE":331.1664,"ARG_OF_PERICENTER":271.9961,"MEAN_ANOMALY":88.073,"EPHEMERIS_TYPE":0,"CLASSIFICATION_TYPE":"U","NORAD_CAT_ID":62100,"ELEMENT_SET_NO":999,"REV_AT_EPOCH":4031,"BSTAR":0.000726,"MEAN_MOTION_DOT":0.00019765,"MEAN_MOTION_DDOT":0},{"OBJECT_NAME":"STARLINK-33545","OBJECT_ID":"2024-220P","EPOCH":"2025-08-05T09:19:02.907840","MEAN_MOTION":15.275956,"ECCENTRICITY":9.56e-5,"INCLINATION":43.002,"RA_OF_ASC_NODE":346.8503,"ARG_OF_PERICENTER":261.621,"MEAN_ANOMALY":98.4534,"EPHEMERIS_TYPE":0,"CLASSIFICATION_TYPE":"U","NORAD_CAT_ID":62101,"ELEMENT_SET_NO":999,"REV_AT_EPOCH":3994,"BSTAR":0.00065114,"MEAN_MOTION_DOT":0.00017707,"MEAN_MOTION_DDOT":0},{"OBJECT_NAME":"STARLINK-33562","OBJECT_ID":"2024-220Q","EPOCH":"2025-08-05T09:35:42.751968","MEAN_MOTION":15.27593966,"ECCENTRICITY":6.4e-5,"INCLINATION":43.0015,"RA_OF_ASC_NODE":346.9339,"ARG_OF_PERICENTER":13.7849,"MEAN_ANOMALY":346.302,"EPHEMERIS_TYPE":0,"CLASSIFICATION_TYPE":"U","NORAD_CAT_ID":62102,"ELEMENT_SET_NO":999,"REV_AT_EPOCH":3994,"BSTAR":0.00071769,"MEAN_MOTION_DOT":0.00019548,"MEAN_MOTION_DDOT":0},{"OBJECT_NAME":"STARLINK-33554","OBJECT_ID":"2024-220R","EPOCH":"2025-08-05T09:13:29.816832","MEAN_MOTION":15.27599046,"ECCENTRICITY":4.1e-5,"INCLINATION":42.9958,"RA_OF_ASC_NODE":346.8197,"ARG_OF_PERICENTER":273.3651,"MEAN_ANOMALY":86.7154,"EPHEMERIS_TYPE":0,"CLASSIFICATION_TYPE":"U","NORAD_CAT_ID":62103,"ELEMENT_SET_NO":999,"REV_AT_EPOCH":3987,"BSTAR":0.00058756,"MEAN_MOTION_DOT":0.00015951,"MEAN_MOTION_DDOT":0},{"OBJECT_NAME":"STARLINK-33555","OBJECT_ID":"2024-220S","EPOCH":"2025-08-05T10:01:36.080544","MEAN_MOTION":15.27598193,"ECCENTRICITY":0.0001308,"INCLINATION":43.0019,"RA_OF_ASC_NODE":347.0652,"ARG_OF_PERICENTER":269.6,"MEAN_ANOMALY":90.4702,"EPHEMERIS_TYPE":0,"CLASSIFICATION_TYPE":"U","NORAD_CAT_ID":62104,"ELEMENT_SET_NO":999,"REV_AT_EPOCH":4008,"BSTAR":0.00048777,"MEAN_MOTION_DOT":0.00013192,"MEAN_MOTION_DDOT":0},{"OBJECT_NAME":"STARLINK-33542","OBJECT_ID":"2024-220T","EPOCH":"2025-08-05T08:22:31.675008","MEAN_MOTION":16.08289685,"ECCENTRICITY":0.0003125,"INCLINATION":42.9098,"RA_OF_ASC_NODE":222.4368,"ARG_OF_PERICENTER":278.0191,"MEAN_ANOMALY":82.0334,"EPHEMERIS_TYPE":0,"CLASSIFICATION_TYPE":"U","NORAD_CAT_ID":62105,"ELEMENT_SET_NO":999,"REV_AT_EPOCH":4151,"BSTAR":-0.0005437,"MEAN_MOTION_DOT":-0.00483259,"MEAN_MOTION_DDOT":9.7545e-5},{"OBJECT_NAME":"STARLINK-33557","OBJECT_ID":"2024-220U","EPOCH":"2025-08-05T09:59:58.894368","MEAN_MOTION":16.09607848,"ECCENTRICITY":0.0004918,"INCLINATION":42.9216,"RA_OF_ASC_NODE":234.724,"ARG_OF_PERICENTER":327.3369,"MEAN_ANOMALY":32.7207,"EPHEMERIS_TYPE":0,"CLASSIFICATION_TYPE":"U","NORAD_CAT_ID":62106,"ELEMENT_SET_NO":999,"REV_AT_EPOCH":4120,"BSTAR":0.00062,"MEAN_MOTION_DOT":0.00593976,"MEAN_MOTION_DDOT":0.00018833},{"OBJECT_NAME":"STARLINK-33559","OBJECT_ID":"2024-220V","EPOCH":"2025-08-05T09:56:03.487200","MEAN_MOTION":15.27549538,"ECCENTRICITY":7.91e-5,"INCLINATION":43.0027,"RA_OF_ASC_NODE":347.0385,"ARG_OF_PERICENTER":254.6077,"MEAN_ANOMALY":105.4687,"EPHEMERIS_TYPE":0,"CLASSIFICATION_TYPE":"U","NORAD_CAT_ID":62107,"ELEMENT_SET_NO":999,"REV_AT_EPOCH":4011,"BSTAR":0.00094478,"MEAN_MOTION_DOT":0.00025803,"MEAN_MOTION_DDOT":0}]
