STARLINK-11388 [DTC]    
1 62092U 24220E   25217.51554250  .00141389  00000+0  10863-2 0  9998
2 62092  42.9972 266.1858 0001133 247.6001 112.4746 15.70849467 40952
STARLINK-11345 [DTC]    
1 62093U 24220F   25217.51023271  .00176694  00000+0  13493-2 0  9992
2 62093  43.0002 266.1447 0001774 287.2939  72.7734 15.70877561 40955
STARLINK-11381 [DTC]    
1 62094U 24220G   25217.50492357  .00168553  00000+0  12892-2 0  9994
2 62094  43.0015 266.0996 0001631 286.6376  73.4312 15.70865866 40953
STARLINK-11369 [DTC]    
1 62095U 24220H   25217.49961169  .00159571  00000+0  12213-2 0  9992
2 62095  43.0009 266.0574 0002431 279.2297  80.8296 15.70878497 41057
STARLINK-11303 [DTC]    
1 62096U 24220J   25217.49430146  .00176675  00000+0  13492-2 0  9993
2 62096  43.0029 266.0144 0002423 273.2355  86.8235 15.70875903 41051
STARLINK-11367 [DTC]    
1 62097U 24220K   25217.48899203  .00185105  00000+0  14112-2 0  9994
2 62097  43.0015 265.9716 0002636 275.6569  84.3998 15.70888612 41059
STARLINK-11386 [DTC]    
1 62098U 24220L   25217.42010065  .00230886  00000+0  17504-2 0  9995
2 62098  42.9992 266.3119 0000561 202.3152 157.7692 15.70879150 40944
STARLINK-11380 [DTC]    
1 62099U 24220M   25217.54195813  .00118481  00000+0  91316-3 0  9994
2 62099  43.0003 265.5040 0001466 284.3972  75.6733 15.70855029 40964
STARLINK-33566          
1 62100U 24220N   25217.60544918  .00019765  00000+0  72600-3 0  9998
2 62100  43.0001 331.1664 0001402 271.9961  88.0730 15.27572591 40313
STARLINK-33545          
1 62101U 24220P   25217.38822810  .00017707  00000+0  65114-3 0  9990
2 62101  43.0020 346.8503 0000956 261.6210  98.4534 15.27595600 39946
STARLINK-33562          
1 62102U 24220Q   25217.39980037  .00019548  00000+0  71769-3 0  9996
2 62102  43.0015 346.9339 0000640  13.7849 346.3020 15.27593966 39941
STARLINK-33554          
1 62103U 24220R   25217.38437288  .00015951  00000+0  58756-3 0  9996
2 62103  42.9958 346.8197 0000410 273.3651  86.7154 15.27599046 39877
STARLINK-33555          
1 62104U 24220S   25217.41777871  .00013192  00000+0  48777-3 0  9993
2 62104  43.0019 347.0652 0001308 269.6000  90.4702 15.27598193 40088
STARLINK-33542          
1 62105U 24220T   25217.34897772 -.00483259  97545-4 -54370-3 0  9997
2 62105  42.9098 222.4368 0003125 278.0191  82.0334 16.08289685 41518
STARLINK-33557          
1 62106U 24220U   25217.41665387  .00593976  18833-3  62000-3 0  9998
2 62106  42.9216 234.7240 0004918 327.3369  32.7207 16.09607848 41205
STARLINK-33559          
1 62107U 24220V   25217.41392925  .00025803  00000+0  94478-3 0  9990
2 62107  43.0027 347.0385 0000791 254.6077 105.4687 15.27549538 40118
